CARTOSAT-2A             
1 32783U 08021A   26196.92993737 -.00000098  00000+0 -64661-5 0  9993
2 32783  97.7620 244.6553 0012480  24.9245 335.2567 14.79275866983057
CARTOSAT-2B             
1 36795U 10035A   26196.96448714  .00000165  00000+0  29611-4 0  9990
2 36795  97.9941 247.3272 0012688  97.4203 262.8450 14.78650486864103
CARBONITE 1 (CBNT-1)    
1 40718U 15032D   26196.98099049  .00001249  00000+0  15723-3 0  9999
2 40718  97.6512  13.8444 0013931 194.3878 165.6942 14.83669960593612
CARTOSAT-2C             
1 41599U 16040A   26196.97499578  .00002692  00000+0  13079-3 0  9992
2 41599  97.4468 256.5542 0009484  42.6030 317.5939 15.19267519558086
CARTOSAT-2D             
1 41948U 17008A   26196.94088560  .00000824  00000+0  42242-4 0  9997
2 41948  97.4095 255.7066 0006067 135.7691 224.4030 15.19285465521946
CARTOSAT-2E             
1 42767U 17036C   26196.95866749  .00001776  00000+0  87474-4 0  9995
2 42767  97.4263 256.2840 0003295 185.8595 174.2602 15.19257364502514
CARTOSAT-2F             
1 43111U 18004A   26196.99124639  .00000102  00000+0  80798-5 0  9999
2 43111  97.4774 256.3421 0002366 130.1455 229.9987 15.19171951471704
CARTOSAT-3              
1 44804U 19081A   26196.93962047  .00001449  00000+0  72002-4 0  9995
2 44804  97.4296 258.3413 0012975  56.5343 303.7130 15.19186606367832
CARBSAR                 
1 67397U 26004AL  26196.94924769  .00004920  00000+0  23211-3 0  9994
2 67397  97.4546 195.7711 0004204 218.3161 141.7776 15.19917587 28132
CAPELLA-20 (ACADIA-10)  
1 68485U 26067BX  26196.86932987  .00002721  00000+0  27607-3 0  9994
2 68485  97.7588 154.7086 0001130 148.0816 212.0471 14.91687062 16009
