{
 "generated_at": "2026-07-16T07:22:15Z",
 "sources": [
  {
   "name": "CelesTrak",
   "url": "https://celestrak.org/NORAD/elements/",
   "license": "frei verfügbar; Attribution. Ursprünglich USSPACECOM/Space-Track."
  },
  {
   "name": "GCAT (J. McDowell, planet4589.org)",
   "url": "https://planet4589.org/space/gcat/",
   "license": "CC-BY 4.0"
  }
 ],
 "satellites": [
  {
   "norad": 68485,
   "name": "CAPELLA-20 (ACADIA-10)",
   "intl": "2026-067BX",
   "group": "sar",
   "gcat": {
    "class": "B",
    "category": "IMG-R",
    "owner": "CAPSP",
    "state": "US"
   },
   "omm": {
    "OBJECT_NAME": "CAPELLA-20 (ACADIA-10)",
    "OBJECT_ID": "2026-067BX",
    "EPOCH": "2026-07-15T20:51:50.100768",
    "MEAN_MOTION": 14.91687062,
    "ECCENTRICITY": 0.00011304,
    "INCLINATION": 97.7588,
    "RA_OF_ASC_NODE": 154.7086,
    "ARG_OF_PERICENTER": 148.0816,
    "MEAN_ANOMALY": 212.0471,
    "EPHEMERIS_TYPE": 0,
    "CLASSIFICATION_TYPE": "U",
    "NORAD_CAT_ID": 68485,
    "ELEMENT_SET_NO": 999,
    "REV_AT_EPOCH": 1600,
    "BSTAR": 0.00027607148,
    "MEAN_MOTION_DOT": 0.00002721,
    "MEAN_MOTION_DDOT": 0
   }
  },
  {
   "norad": 40718,
   "name": "CARBONITE 1 (CBNT-1)",
   "intl": "2015-032D",
   "group": "resource",
   "gcat": {
    "class": "B",
    "category": "IMG",
    "owner": "SSTLA",
    "state": "UK"
   },
   "omm": {
    "OBJECT_NAME": "CARBONITE 1 (CBNT-1)",
    "OBJECT_ID": "2015-032D",
    "EPOCH": "2026-07-15T23:32:37.578336",
    "MEAN_MOTION": 14.8366996,
    "ECCENTRICITY": 0.00139318,
    "INCLINATION": 97.6512,
    "RA_OF_ASC_NODE": 13.8444,
    "ARG_OF_PERICENTER": 194.3878,
    "MEAN_ANOMALY": 165.6942,
    "EPHEMERIS_TYPE": 0,
    "CLASSIFICATION_TYPE": "U",
    "NORAD_CAT_ID": 40718,
    "ELEMENT_SET_NO": 999,
    "REV_AT_EPOCH": 59361,
    "BSTAR": 0.00015723356,
    "MEAN_MOTION_DOT": 0.00001249,
    "MEAN_MOTION_DDOT": 0
   }
  },
  {
   "norad": 67397,
   "name": "CARBSAR",
   "intl": "2026-004AL",
   "group": "sar",
   "gcat": {
    "class": "B",
    "category": "IMG-R",
    "owner": "SSTL",
    "state": "UK"
   },
   "omm": {
    "OBJECT_NAME": "CARBSAR",
    "OBJECT_ID": "2026-004AL",
    "EPOCH": "2026-07-15T22:46:55.000416",
    "MEAN_MOTION": 15.19917587,
    "ECCENTRICITY": 0.00042046,
    "INCLINATION": 97.4546,
    "RA_OF_ASC_NODE": 195.7711,
    "ARG_OF_PERICENTER": 218.3161,
    "MEAN_ANOMALY": 141.7776,
    "EPHEMERIS_TYPE": 0,
    "CLASSIFICATION_TYPE": "U",
    "NORAD_CAT_ID": 67397,
    "ELEMENT_SET_NO": 999,
    "REV_AT_EPOCH": 2813,
    "BSTAR": 0.00023210743,
    "MEAN_MOTION_DOT": 0.0000492,
    "MEAN_MOTION_DDOT": 0
   }
  },
  {
   "norad": 32783,
   "name": "CARTOSAT-2A",
   "intl": "2008-021A",
   "group": "resource",
   "gcat": {
    "class": "D",
    "category": "IMG",
    "owner": "ISRO",
    "state": "IN"
   },
   "omm": {
    "OBJECT_NAME": "CARTOSAT-2A",
    "OBJECT_ID": "2008-021A",
    "EPOCH": "2026-07-15T22:19:06.588768",
    "MEAN_MOTION": 14.79275866,
    "ECCENTRICITY": 0.00124808,
    "INCLINATION": 97.762,
    "RA_OF_ASC_NODE": 244.6553,
    "ARG_OF_PERICENTER": 24.9245,
    "MEAN_ANOMALY": 335.2567,
    "EPHEMERIS_TYPE": 0,
    "CLASSIFICATION_TYPE": "U",
    "NORAD_CAT_ID": 32783,
    "ELEMENT_SET_NO": 999,
    "REV_AT_EPOCH": 98305,
    "BSTAR": -0.000006466071,
    "MEAN_MOTION_DOT": -9.8e-7,
    "MEAN_MOTION_DDOT": 0
   }
  },
  {
   "norad": 36795,
   "name": "CARTOSAT-2B",
   "intl": "2010-035A",
   "group": "resource",
   "gcat": {
    "class": "D",
    "category": "IMG",
    "owner": "ISRO",
    "state": "IN"
   },
   "omm": {
    "OBJECT_NAME": "CARTOSAT-2B",
    "OBJECT_ID": "2010-035A",
    "EPOCH": "2026-07-15T23:08:51.688896",
    "MEAN_MOTION": 14.78650486,
    "ECCENTRICITY": 0.00126885,
    "INCLINATION": 97.9941,
    "RA_OF_ASC_NODE": 247.3272,
    "ARG_OF_PERICENTER": 97.4203,
    "MEAN_ANOMALY": 262.845,
    "EPHEMERIS_TYPE": 0,
    "CLASSIFICATION_TYPE": "U",
    "NORAD_CAT_ID": 36795,
    "ELEMENT_SET_NO": 999,
    "REV_AT_EPOCH": 86410,
    "BSTAR": 0.000029610625,
    "MEAN_MOTION_DOT": 0.00000165,
    "MEAN_MOTION_DDOT": 0
   }
  },
  {
   "norad": 41599,
   "name": "CARTOSAT-2C",
   "intl": "2016-040A",
   "group": "resource",
   "gcat": {
    "class": "D",
    "category": "IMG",
    "owner": "ISRO",
    "state": "IN"
   },
   "omm": {
    "OBJECT_NAME": "CARTOSAT-2C",
    "OBJECT_ID": "2016-040A",
    "EPOCH": "2026-07-15T23:23:59.635392",
    "MEAN_MOTION": 15.19267519,
    "ECCENTRICITY": 0.00094841,
    "INCLINATION": 97.4468,
    "RA_OF_ASC_NODE": 256.5542,
    "ARG_OF_PERICENTER": 42.603,
    "MEAN_ANOMALY": 317.5939,
    "EPHEMERIS_TYPE": 0,
    "CLASSIFICATION_TYPE": "U",
    "NORAD_CAT_ID": 41599,
    "ELEMENT_SET_NO": 999,
    "REV_AT_EPOCH": 55808,
    "BSTAR": 0.00013078879,
    "MEAN_MOTION_DOT": 0.00002692,
    "MEAN_MOTION_DDOT": 0
   }
  },
  {
   "norad": 41948,
   "name": "CARTOSAT-2D",
   "intl": "2017-008A",
   "group": "resource",
   "gcat": {
    "class": "D",
    "category": "IMG",
    "owner": "ISRO",
    "state": "IN"
   },
   "omm": {
    "OBJECT_NAME": "CARTOSAT-2D",
    "OBJECT_ID": "2017-008A",
    "EPOCH": "2026-07-15T22:34:52.515840",
    "MEAN_MOTION": 15.19285465,
    "ECCENTRICITY": 0.00060671,
    "INCLINATION": 97.4095,
    "RA_OF_ASC_NODE": 255.7066,
    "ARG_OF_PERICENTER": 135.7691,
    "MEAN_ANOMALY": 224.403,
    "EPHEMERIS_TYPE": 0,
    "CLASSIFICATION_TYPE": "U",
    "NORAD_CAT_ID": 41948,
    "ELEMENT_SET_NO": 999,
    "REV_AT_EPOCH": 52194,
    "BSTAR": 0.000042241954,
    "MEAN_MOTION_DOT": 0.00000824,
    "MEAN_MOTION_DDOT": 0
   }
  },
  {
   "norad": 42767,
   "name": "CARTOSAT-2E",
   "intl": "2017-036C",
   "group": "resource",
   "gcat": {
    "class": "D",
    "category": "IMG",
    "owner": "ISRO",
    "state": "IN"
   },
   "omm": {
    "OBJECT_NAME": "CARTOSAT-2E",
    "OBJECT_ID": "2017-036C",
    "EPOCH": "2026-07-15T23:00:28.871136",
    "MEAN_MOTION": 15.19257364,
    "ECCENTRICITY": 0.00032952,
    "INCLINATION": 97.4263,
    "RA_OF_ASC_NODE": 256.284,
    "ARG_OF_PERICENTER": 185.8595,
    "MEAN_ANOMALY": 174.2602,
    "EPHEMERIS_TYPE": 0,
    "CLASSIFICATION_TYPE": "U",
    "NORAD_CAT_ID": 42767,
    "ELEMENT_SET_NO": 999,
    "REV_AT_EPOCH": 50251,
    "BSTAR": 0.000087473689,
    "MEAN_MOTION_DOT": 0.00001776,
    "MEAN_MOTION_DDOT": 0
   }
  },
  {
   "norad": 43111,
   "name": "CARTOSAT-2F",
   "intl": "2018-004A",
   "group": "resource",
   "gcat": {
    "class": "D",
    "category": "IMG",
    "owner": "ISRO",
    "state": "IN"
   },
   "omm": {
    "OBJECT_NAME": "CARTOSAT-2F",
    "OBJECT_ID": "2018-004A",
    "EPOCH": "2026-07-15T23:47:23.688096",
    "MEAN_MOTION": 15.19171951,
    "ECCENTRICITY": 0.00023666,
    "INCLINATION": 97.4774,
    "RA_OF_ASC_NODE": 256.3421,
    "ARG_OF_PERICENTER": 130.1455,
    "MEAN_ANOMALY": 229.9987,
    "EPHEMERIS_TYPE": 0,
    "CLASSIFICATION_TYPE": "U",
    "NORAD_CAT_ID": 43111,
    "ELEMENT_SET_NO": 999,
    "REV_AT_EPOCH": 47170,
    "BSTAR": 0.000008079755,
    "MEAN_MOTION_DOT": 0.00000102,
    "MEAN_MOTION_DDOT": 0
   }
  },
  {
   "norad": 44804,
   "name": "CARTOSAT-3",
   "intl": "2019-081A",
   "group": "resource",
   "gcat": {
    "class": "D",
    "category": "IMG",
    "owner": "ISRO",
    "state": "IN"
   },
   "omm": {
    "OBJECT_NAME": "CARTOSAT-3",
    "OBJECT_ID": "2019-081A",
    "EPOCH": "2026-07-15T22:33:03.208608",
    "MEAN_MOTION": 15.19186606,
    "ECCENTRICITY": 0.00129753,
    "INCLINATION": 97.4296,
    "RA_OF_ASC_NODE": 258.3413,
    "ARG_OF_PERICENTER": 56.5343,
    "MEAN_ANOMALY": 303.713,
    "EPHEMERIS_TYPE": 0,
    "CLASSIFICATION_TYPE": "U",
    "NORAD_CAT_ID": 44804,
    "ELEMENT_SET_NO": 999,
    "REV_AT_EPOCH": 36783,
    "BSTAR": 0.00007200244,
    "MEAN_MOTION_DOT": 0.00001449,
    "MEAN_MOTION_DDOT": 0
   }
  }
 ]
}
